CCSDS_OMM_VERS = 2.0
CREATION_DATE  = 
ORIGINATOR     = 

OBJECT_NAME    = STARLINK-36879
OBJECT_ID      = 2026-038X
CENTER_NAME    = EARTH
REF_FRAME      = TEME
TIME_SYSTEM    = UTC
MEAN_ELEMENT_THEORY = SGP/SGP4

EPOCH          = 2026-03-20T04:00:01.999584
MEAN_MOTION    = 15.49199522
ECCENTRICITY   = .00008517
INCLINATION    = 97.2852
RA_OF_ASC_NODE = 89.9108
ARG_OF_PERICENTER = 72.8530
MEAN_ANOMALY   = 182.2295

EPHEMERIS_TYPE = 0
CLASSIFICATION_TYPE = U
NORAD_CAT_ID   = 67982
ELEMENT_SET_NO = 999
REV_AT_EPOCH   = 488
BSTAR          = -.3912163E-3
MEAN_MOTION_DOT = -.21317E-3
MEAN_MOTION_DDOT = 0

CCSDS_OMM_VERS = 2.0
CREATION_DATE  = 
ORIGINATOR     = 

OBJECT_NAME    = STARLINK-36867
OBJECT_ID      = 2026-038Y
CENTER_NAME    = EARTH
REF_FRAME      = TEME
TIME_SYSTEM    = UTC
MEAN_ELEMENT_THEORY = SGP/SGP4

EPOCH          = 2026-03-20T04:00:01.999584
MEAN_MOTION    = 15.49189170
ECCENTRICITY   = .00016173
INCLINATION    = 97.2848
RA_OF_ASC_NODE = 89.9423
ARG_OF_PERICENTER = 95.3540
MEAN_ANOMALY   = 233.7318

EPHEMERIS_TYPE = 0
CLASSIFICATION_TYPE = U
NORAD_CAT_ID   = 67983
ELEMENT_SET_NO = 999
REV_AT_EPOCH   = 488
BSTAR          = -.41407969E-3
MEAN_MOTION_DOT = -.22547E-3
MEAN_MOTION_DDOT = 0

CCSDS_OMM_VERS = 2.0
CREATION_DATE  = 
ORIGINATOR     = 

OBJECT_NAME    = STARLINK-36266
OBJECT_ID      = 2026-038Z
CENTER_NAME    = EARTH
REF_FRAME      = TEME
TIME_SYSTEM    = UTC
MEAN_ELEMENT_THEORY = SGP/SGP4

EPOCH          = 2026-03-20T04:00:01.999584
MEAN_MOTION    = 15.66524671
ECCENTRICITY   = .00017825
INCLINATION    = 97.2854
RA_OF_ASC_NODE = 90.0377
ARG_OF_PERICENTER = 92.5601
MEAN_ANOMALY   = 114.9975

EPHEMERIS_TYPE = 0
CLASSIFICATION_TYPE = U
NORAD_CAT_ID   = 67984
ELEMENT_SET_NO = 999
REV_AT_EPOCH   = 485
BSTAR          = -.2640054E-1
MEAN_MOTION_DOT = -.2411969E-1
MEAN_MOTION_DDOT = 0

CCSDS_OMM_VERS = 2.0
CREATION_DATE  = 
ORIGINATOR     = 

OBJECT_NAME    = STARLINK-36802
OBJECT_ID      = 2026-038AA
CENTER_NAME    = EARTH
REF_FRAME      = TEME
TIME_SYSTEM    = UTC
MEAN_ELEMENT_THEORY = SGP/SGP4

EPOCH          = 2026-03-19T23:53:57.205536
MEAN_MOTION    = 15.75259861
ECCENTRICITY   = .00013943
INCLINATION    = 97.2877
RA_OF_ASC_NODE = 89.8680
ARG_OF_PERICENTER = 94.2528
MEAN_ANOMALY   = 265.8897

EPHEMERIS_TYPE = 0
CLASSIFICATION_TYPE = U
NORAD_CAT_ID   = 67985
ELEMENT_SET_NO = 999
REV_AT_EPOCH   = 481
BSTAR          = .12801716E-2
MEAN_MOTION_DOT = .19585E-2
MEAN_MOTION_DDOT = 0

CCSDS_OMM_VERS = 2.0
CREATION_DATE  = 
ORIGINATOR     = 

OBJECT_NAME    = STARLINK-36535
OBJECT_ID      = 2026-039A
CENTER_NAME    = EARTH
REF_FRAME      = TEME
TIME_SYSTEM    = UTC
MEAN_ELEMENT_THEORY = SGP/SGP4

EPOCH          = 2026-03-20T04:00:01.999584
MEAN_MOTION    = 15.58193175
ECCENTRICITY   = .00012646
INCLINATION    = 42.9998
RA_OF_ASC_NODE = 351.3402
ARG_OF_PERICENTER = 273.6923
MEAN_ANOMALY   = 230.1446

EPHEMERIS_TYPE = 0
CLASSIFICATION_TYPE = U
NORAD_CAT_ID   = 67986
ELEMENT_SET_NO = 999
REV_AT_EPOCH   = 456
BSTAR          = -.26884648E-1
MEAN_MOTION_DOT = -.1848334E-1
MEAN_MOTION_DDOT = 0

CCSDS_OMM_VERS = 2.0
CREATION_DATE  = 
ORIGINATOR     = 

OBJECT_NAME    = STARLINK-36744
OBJECT_ID      = 2026-039B
CENTER_NAME    = EARTH
REF_FRAME      = TEME
TIME_SYSTEM    = UTC
MEAN_ELEMENT_THEORY = SGP/SGP4

EPOCH          = 2026-03-20T04:00:01.999584
MEAN_MOTION    = 15.59665809
ECCENTRICITY   = .00010826
INCLINATION    = 42.9998
RA_OF_ASC_NODE = 351.2561
ARG_OF_PERICENTER = 272.6539
MEAN_ANOMALY   = 264.6029

EPHEMERIS_TYPE = 0
CLASSIFICATION_TYPE = U
NORAD_CAT_ID   = 67987
ELEMENT_SET_NO = 999
REV_AT_EPOCH   = 456
BSTAR          = -.256175E-1
MEAN_MOTION_DOT = -.186172E-1
MEAN_MOTION_DDOT = 0

CCSDS_OMM_VERS = 2.0
CREATION_DATE  = 
ORIGINATOR     = 

OBJECT_NAME    = STARLINK-36734
OBJECT_ID      = 2026-039C
CENTER_NAME    = EARTH
REF_FRAME      = TEME
TIME_SYSTEM    = UTC
MEAN_ELEMENT_THEORY = SGP/SGP4

EPOCH          = 2026-03-20T04:00:01.999584
MEAN_MOTION    = 15.50518127
ECCENTRICITY   = .00016331
INCLINATION    = 43.0001
RA_OF_ASC_NODE = 352.3489
ARG_OF_PERICENTER = 262.6686
MEAN_ANOMALY   = 192.6716

EPHEMERIS_TYPE = 0
CLASSIFICATION_TYPE = U
NORAD_CAT_ID   = 67988
ELEMENT_SET_NO = 999
REV_AT_EPOCH   = 456
BSTAR          = .17148842E-2
MEAN_MOTION_DOT = .101355E-2
MEAN_MOTION_DDOT = 0

CCSDS_OMM_VERS = 2.0
CREATION_DATE  = 
ORIGINATOR     = 

OBJECT_NAME    = STARLINK-36957
OBJECT_ID      = 2026-039D
CENTER_NAME    = EARTH
REF_FRAME      = TEME
TIME_SYSTEM    = UTC
MEAN_ELEMENT_THEORY = SGP/SGP4

EPOCH          = 2026-03-20T04:00:01.999584
MEAN_MOTION    = 15.58522110
ECCENTRICITY   = .00012371
INCLINATION    = 42.9995
RA_OF_ASC_NODE = 351.2897
ARG_OF_PERICENTER = 269.1773
MEAN_ANOMALY   = 254.1563

EPHEMERIS_TYPE = 0
CLASSIFICATION_TYPE = U
NORAD_CAT_ID   = 67989
ELEMENT_SET_NO = 999
REV_AT_EPOCH   = 456
BSTAR          = -.26634373E-1
MEAN_MOTION_DOT = -.1853578E-1
MEAN_MOTION_DDOT = 0

CCSDS_OMM_VERS = 2.0
CREATION_DATE  = 
ORIGINATOR     = 

OBJECT_NAME    = STARLINK-36951
OBJECT_ID      = 2026-039E
CENTER_NAME    = EARTH
REF_FRAME      = TEME
TIME_SYSTEM    = UTC
MEAN_ELEMENT_THEORY = SGP/SGP4

EPOCH          = 2026-03-20T04:00:01.999584
MEAN_MOTION    = 15.54522929
ECCENTRICITY   = .00016851
INCLINATION    = 42.9996
RA_OF_ASC_NODE = 351.4970
ARG_OF_PERICENTER = 272.6632
MEAN_ANOMALY   = 167.1072

EPHEMERIS_TYPE = 0
CLASSIFICATION_TYPE = U
NORAD_CAT_ID   = 67990
ELEMENT_SET_NO = 999
REV_AT_EPOCH   = 456
BSTAR          = -.30667017E-1
MEAN_MOTION_DOT = -.1838246E-1
MEAN_MOTION_DDOT = 0

CCSDS_OMM_VERS = 2.0
CREATION_DATE  = 
ORIGINATOR     = 

OBJECT_NAME    = STARLINK-36941
OBJECT_ID      = 2026-039F
CENTER_NAME    = EARTH
REF_FRAME      = TEME
TIME_SYSTEM    = UTC
MEAN_ELEMENT_THEORY = SGP/SGP4

EPOCH          = 2026-03-20T04:00:01.999584
MEAN_MOTION    = 15.50515035
ECCENTRICITY   = .00013949
INCLINATION    = 43.0003
RA_OF_ASC_NODE = 352.3380
ARG_OF_PERICENTER = 265.7968
MEAN_ANOMALY   = 192.9776

EPHEMERIS_TYPE = 0
CLASSIFICATION_TYPE = U
NORAD_CAT_ID   = 67991
ELEMENT_SET_NO = 999
REV_AT_EPOCH   = 456
BSTAR          = .16676652E-2
MEAN_MOTION_DOT = .98507E-3
MEAN_MOTION_DDOT = 0

CCSDS_OMM_VERS = 2.0
CREATION_DATE  = 
ORIGINATOR     = 

OBJECT_NAME    = STARLINK-36950
OBJECT_ID      = 2026-039G
CENTER_NAME    = EARTH
REF_FRAME      = TEME
TIME_SYSTEM    = UTC
MEAN_ELEMENT_THEORY = SGP/SGP4

EPOCH          = 2026-03-20T04:00:01.999584
MEAN_MOTION    = 15.50531348
ECCENTRICITY   = .00019461
INCLINATION    = 42.9999
RA_OF_ASC_NODE = 351.9613
ARG_OF_PERICENTER = 255.8338
MEAN_ANOMALY   = 355.6567

EPHEMERIS_TYPE = 0
CLASSIFICATION_TYPE = U
NORAD_CAT_ID   = 67992
ELEMENT_SET_NO = 999
REV_AT_EPOCH   = 456
BSTAR          = .2038328E-2
MEAN_MOTION_DOT = .120897E-2
MEAN_MOTION_DDOT = 0

CCSDS_OMM_VERS = 2.0
CREATION_DATE  = 
ORIGINATOR     = 

OBJECT_NAME    = STARLINK-36975
OBJECT_ID      = 2026-039H
CENTER_NAME    = EARTH
REF_FRAME      = TEME
TIME_SYSTEM    = UTC
MEAN_ELEMENT_THEORY = SGP/SGP4

EPOCH          = 2026-03-20T04:00:01.999584
MEAN_MOTION    = 15.50518817
ECCENTRICITY   = .00014268
INCLINATION    = 42.9999
RA_OF_ASC_NODE = 351.8624
ARG_OF_PERICENTER = 245.9259
MEAN_ANOMALY   = 44.8540

EPHEMERIS_TYPE = 0
CLASSIFICATION_TYPE = U
NORAD_CAT_ID   = 67993
ELEMENT_SET_NO = 999
REV_AT_EPOCH   = 456
BSTAR          = .16267282E-2
MEAN_MOTION_DOT = .96063E-3
MEAN_MOTION_DDOT = 0

