STARLINK-36879          
1 67982U 26038X   26079.16668981 -.00021317  00000+0 -39122-3 0  9995
2 67982  97.2852  89.9108 0000851  72.8530 182.2295 15.49199522  4887
STARLINK-36867          
1 67983U 26038Y   26079.16668981 -.00022547  00000+0 -41408-3 0  9992
2 67983  97.2848  89.9423 0001617  95.3540 233.7318 15.49189170  4881
STARLINK-36266          
1 67984U 26038Z   26079.16668981 -.02411969  00000+0 -26401-1 0  9999
2 67984  97.2854  90.0377 0001782  92.5601 114.9975 15.66524671  4854
STARLINK-36802          
1 67985U 26038AA  26078.99580099  .00195850  00000+0  12802-2 0  9998
2 67985  97.2877  89.8680 0001394  94.2528 265.8897 15.75259861  4810
STARLINK-36535          
1 67986U 26039A   26079.16668981 -.01848334  00000+0 -26885-1 0  9997
2 67986  42.9998 351.3402 0001264 273.6923 230.1446 15.58193175  4562
STARLINK-36744          
1 67987U 26039B   26079.16668981 -.01861720  00000+0 -25618-1 0  9995
2 67987  42.9998 351.2561 0001082 272.6539 264.6029 15.59665809  4566
STARLINK-36734          
1 67988U 26039C   26079.16668981  .00101355  00000+0  17149-2 0  9995
2 67988  43.0001 352.3489 0001633 262.6686 192.6716 15.50518127  4563
STARLINK-36957          
1 67989U 26039D   26079.16668981 -.01853578  00000+0 -26634-1 0  9998
2 67989  42.9995 351.2897 0001237 269.1773 254.1563 15.58522110  4563
STARLINK-36951          
1 67990U 26039E   26079.16668981 -.01838246  00000+0 -30667-1 0  9996
2 67990  42.9996 351.4970 0001685 272.6632 167.1072 15.54522929  4562
STARLINK-36941          
1 67991U 26039F   26079.16668981  .00098507  00000+0  16677-2 0  9998
2 67991  43.0003 352.3380 0001394 265.7968 192.9776 15.50515035  4564
STARLINK-36950          
1 67992U 26039G   26079.16668981  .00120897  00000+0  20383-2 0  9996
2 67992  42.9999 351.9613 0001946 255.8338 355.6567 15.50531348  4566
STARLINK-36975          
1 67993U 26039H   26079.16668981  .00096063  00000+0  16267-2 0  9990
2 67993  42.9999 351.8624 0001426 245.9259  44.8540 15.50518817  4567
